LUCKY-7                 
1 44406U 19038W   22229.45089312  .00004887  00000+0  25603-3 0  9993
2 44406  97.6433 198.8381 0020531 280.9988  78.8935 15.16103649172203
D-STAR ONE (EXOCONNECT) 
1 44410U 19038AA  22229.46244973  .00011789  00000+0  53041-3 0  9991
2 44410  97.6341 200.5064 0015731 277.6021  82.3428 15.21152529172363
NARSSCUBE-2             
1 44415U 19022E   22229.05849912  .00006934  00000+0  20785-3 0  9993
2 44415  51.6396 184.1136 0009680 277.2557  82.7325 15.35599648169426
DUCHIFAT-3              
1 44854U 19089C   22229.77866356  .00002701  00000+0  21135-3 0  9991
2 44854  36.9657  96.6932 0008807 350.1864  92.1158 15.01403258147151
OPS-SAT                 
1 44878U 19092F   22229.46527096  .00008234  00000+0  37458-3 0  9994
2 44878  97.4818  52.9289 0013398 124.0177 236.2333 15.20900607147465
FLORIPASAT-1            
1 44885U 19093G   22229.46479218  .00001348  00000+0  17085-3 0  9998
2 44885  97.8961 309.2438 0014274 359.4749   0.6446 14.83320271143895
HUSKYSAT-1 (HO-107)     
1 45119U 19071J   22229.21355789  .00019196  00000+0  38285-3 0  9999
2 45119  51.6368 120.3391 0009132  39.2878 320.8770 15.46841903142760
BY70-2                  
1 45857U 20042B   22229.80947459  .00004936  00000+0  65214-3 0  9992
2 45857  97.9536 306.0863 0008707 276.6243  83.3966 14.80431576114536
SALSAT                  
1 46495U 20068K   22229.47955211  .00001479  00000+0  10917-3 0  9996
2 46495  97.7309 170.8149 0018152  72.5077 287.8131 15.04719558103368
NETSAT-4                
1 46504U 20068U   22229.53562719  .00001397  00000+0  10638-3 0  9990
2 46504  97.7284 169.2279 0013376 111.3979 248.8657 15.03683147103221
NETSAT-3                
1 46505U 20068V   22229.55273771  .00002002  00000+0  15057-3 0  9994
2 46505  97.7268 169.1556 0012735 119.1208 241.1249 15.03650262103236
NETSAT-1                
1 46506U 20068W   22229.57142988  .00002737  00000+0  20459-3 0  9999
2 46506  97.7252 169.0970 0010122 131.5356 228.6733 15.03595954103233
NETSAT-2                
1 46507U 20068X   22229.58177444  .00002998  00000+0  22389-3 0  9999
2 46507  97.7257 169.1003 0009005 136.7475 223.4464 15.03568382103187
BY70-3                  
1 46839U 20079N   22229.66625830  .00019790  00000+0  43122-3 0  9991
2 46839  97.1945 301.0419 0006921 109.5941  40.0012 15.44273108 99686
UVSQ-SAT                
1 47438U 21006AB  22229.13727632  .00004486  00000+0  23470-3 0  9993
2 47438  97.4324 286.9103 0013207  68.6330 291.6311 15.16272540 86476
SOMP2B                  
1 47445U 21006AJ  22229.47909666  .00004302  00000+0  22755-3 0  9999
2 47445  97.4296 286.8584 0012955  71.5551 288.7089 15.15915658 86518
DIY-1 (ARDUIQUBE)       
1 47963U 21022AH  22229.53661568  .00014372  00000+0  76959-3 0  9998
2 47963  97.5247 130.2359 0014166 284.0634  75.9023 15.15043878 76194
